[{"OBJECT_NAME":"STARLINK-31307","OBJECT_ID":"2024-041R","EPOCH":"2026-03-09T22:50:19.570560","MEAN_MOTION":15.27570904,"ECCENTRICITY":0.00019528,"INCLINATION":43.0068,"RA_OF_ASC_NODE":309.0515,"ARG_OF_PERICENTER":269.184,"MEAN_ANOMALY":90.8788,"EPHEMERIS_TYPE":0,"CLASSIFICATION_TYPE":"U","NORAD_CAT_ID":59089,"ELEMENT_SET_NO":999,"REV_AT_EPOCH":11436,"BSTAR":-4.218454e-6,"MEAN_MOTION_DOT":-3.79e-6,"MEAN_MOTION_DDOT":0},{"OBJECT_NAME":"COSMOS 252 DEB","OBJECT_ID":"1968-097BM","EPOCH":"2026-03-09T19:23:01.251168","MEAN_MOTION":14.84266968,"ECCENTRICITY":0.01906429,"INCLINATION":62.1994,"RA_OF_ASC_NODE":322.7421,"ARG_OF_PERICENTER":219.9576,"MEAN_ANOMALY":138.735,"EPHEMERIS_TYPE":0,"CLASSIFICATION_TYPE":"U","NORAD_CAT_ID":3900,"ELEMENT_SET_NO":999,"REV_AT_EPOCH":87477,"BSTAR":0.00094776544,"MEAN_MOTION_DOT":0.00010849,"MEAN_MOTION_DDOT":0}]
